[Satellite]
VERSION=1.1
NAME=PICOSAT 3
NICKNAME=PICOSAT 3
TLE1=1 26091U 00004J   11059.57164127  .00000359  00000-0  12264-3 0  1392
TLE2=2 26091 100.1998  12.9267 0031179 201.1121 158.8770 14.43760862581072
